NORAD_CAT_ID,OBJECT_NAME,OBJECT_TYPE,EPOCH,MEAN_MOTION,ECCENTRICITY,INCLINATION,RA_OF_ASC_NODE,ARG_OF_PERICENTER,MEAN_ANOMALY,BSTAR,MEAN_MOTION_DOT,MEAN_MOTION_DDOT,TLE_LINE0,TLE_LINE1,TLE_LINE2,SEMIMAJOR_AXIS,PERIOD,APOGEE,PERIGEE,DECAYED
54092.0,STARLINK-5190,PAYLOAD,2023-01-13 13:29:20,15.08849653,0.0001121,53.216,101.6787,97.2584,262.8535,6.0292e-05,6.72e-06,0.0,0 STARLINK-5190,1 54092U 22136AT  23013.56204763  .00000672  00000-0  60292-4 0  9994,2 54092  53.2160 101.6787 0001121  97.2584 262.8535 15.08849653 13205,6917.851,95.437,540.491,538.94,0.0
54092.0,STARLINK-5190,PAYLOAD,2023-01-14 11:44:45,15.08833314,0.0001052,53.217,97.5142,76.5832,283.5277,7.0367e-05,8.32e-06,0.0,0 STARLINK-5190,1 54092U 22136AT  23014.48941859  .00000832  00000-0  70367-4 0  9992,2 54092  53.2170  97.5142 0001052  76.5832 283.5277 15.08833314 13810,6917.901,95.438,540.494,539.038,0.0
54092.0,STARLINK-5190,PAYLOAD,2023-01-14 22:52:27,15.08839433,8.4e-05,53.2173,95.4348,72.6218,287.4866,0.00010785,1.429e-05,0.0,0 STARLINK-5190,1 54092U 22136AT  23014.95309175  .00001429  00000-0  10785-3 0  9993,2 54092  53.2173  95.4348 0000840  72.6218 287.4866 15.08839433 13889,6917.882,95.438,540.328,539.1659999999999,0.0
54092.0,STARLINK-5190,PAYLOAD,2023-01-15 11:35:32,15.08833627,0.0001252999999999,53.2168,93.0561,86.6864,273.4272,4.993e-05,5.07e-06,0.0,0 STARLINK-5190,1 54092U 22136AT  23015.48302068  .00000507  00000-0  49930-4 0  9997,2 54092  53.2168  93.0561 0001253  86.6864 273.4272 15.08833627 13969,6917.9,95.438,540.632,538.898,0.0
54092.0,STARLINK-5190,PAYLOAD,2023-01-16 11:26:17,15.08861923,9.01e-05,53.2166,88.5945,81.6939,278.4156,0.00029085,4.347e-05,0.0,0 STARLINK-5190,1 54092U 22136AT  23016.47659311  .00004347  00000-0  29085-3 0  9997,2 54092  53.2166  88.5945 0000901  81.6939 278.4156 15.08861923 14113,6917.813,95.436,540.302,539.055,0.0
54092.0,STARLINK-5190,PAYLOAD,2023-01-16 13:01:40,15.08868696,9.71e-05,53.2173,88.2983,85.1511,274.9592,0.00022332,3.271e-05,0.0,0 STARLINK-5190,1 54092U 22136AT  23016.54282961  .00003271  00000-0  22332-3 0  9991,2 54092  53.2173  88.2983 0000971  85.1511 274.9592 15.08868696 13659,6917.793000000001,95.436,540.3290000000001,538.986,0.0
54092.0,STARLINK-5190,PAYLOAD,2023-01-17 03:20:12,15.08814378,0.0001225,53.2153,85.6213,89.1165,270.9967,-0.00018574,-3.241e-05,0.0,0 STARLINK-5190,1 54092U 22136AT  23017.13903918 -.00003241  00000-0 -18574-3 0  9991,2 54092  53.2153  85.6213 0001225  89.1165 270.9967 15.08814378 14219,6917.959,95.439,540.6709999999999,538.976,0.0
54092.0,STARLINK-5190,PAYLOAD,2023-01-17 11:17:09,15.08810148,0.0001013,53.2162,84.1337,113.4042,246.7057,-0.00015513,-2.754e-05,0.0,0 STARLINK-5190,1 54092U 22136AT  23017.47024556 -.00002754  00000-0 -15513-3 0  9998,2 54092  53.2162  84.1337 0001013 113.4042 246.7057 15.08810148 13794,6917.972,95.439,540.5369999999999,539.136,0.0
54092.0,STARLINK-5190,PAYLOAD,2023-01-18 03:10:59,15.08840755,5.04e-05,53.2174,81.1575,115.9121,244.1923,-0.00019961,-3.463e-05,0.0,0 STARLINK-5190,1 54092U 22136AT  23018.13263192 -.00003463  00000-0 -19961-3 0  9992,2 54092  53.2174  81.1575 0000504 115.9121 244.1923 15.08840755 14362,6917.878000000001,95.438,540.092,539.394,0.0
54092.0,STARLINK-5190,PAYLOAD,2023-01-18 11:07:52,15.0886829,9.96e-05,53.2168,79.6738,119.1477,240.9615,5.249600000000001e-05,5.48e-06,0.0,0 STARLINK-5190,1 54092U 22136AT  23018.46380515  .00000548  00000-0  52496-4 0  9997,2 54092  53.2168  79.6738 0000996 119.1477 240.9615 15.08868290 14415,6917.794,95.436,540.3480000000001,538.97,0.0
54092.0,STARLINK-5190,PAYLOAD,2023-01-18 20:40:11,15.08865622,9.09e-05,53.2168,77.8899,114.5776,245.5311,2.6846e-05,1.4e-06,0.0,0 STARLINK-5190,1 54092U 22136AT  23018.86124340  .00000140  00000-0  26846-4 0  9991,2 54092  53.2168  77.8899 0000909 114.5776 245.5311 15.08865622 14003,6917.802,95.436,540.2959999999999,539.038,0.0
54092.0,STARLINK-5190,PAYLOAD,2023-01-19 07:47:55,15.08833239,0.0001392,53.218,75.8083,110.6192,249.495,0.00030559,4.578e-05,0.0,0 STARLINK-5190,1 54092U 22136AT  23019.32494253  .00004578  00000-0  30559-3 0  9990,2 54092  53.2180  75.8083 0001392 110.6192 249.4950 15.08833239 14546,6917.901,95.438,540.729,538.803,0.0
54092.0,STARLINK-5190,PAYLOAD,2023-01-19 12:34:03,15.08844425,9.15e-05,53.2172,74.9155,118.81,241.2984,0.00037404,5.671e-05,0.0,0 STARLINK-5190,1 54092U 22136AT  23019.52365295  .00005671  00000-0  37404-3 0  9996,2 54092  53.2172  74.9155 0000915 118.8100 241.2984 15.08844425 14104,6917.866999999999,95.437,540.365,539.099,0.0
54092.0,STARLINK-5190,PAYLOAD,2023-01-19 23:41:47,15.08831318,0.0001354,53.2167,72.8341,121.6768,238.4357,-0.00012874,-2.336e-05,0.0,0 STARLINK-5190,1 54092U 22136AT  23019.98735608 -.00002336  00000-0 -12874-3 0  9996,2 54092  53.2167  72.8341 0001354 121.6768 238.4357 15.08831318 14640,6917.906999999999,95.438,540.7090000000001,538.835,0.0
54092.0,STARLINK-5190,PAYLOAD,2023-01-20 10:49:28,15.0884249,0.0001395,53.216,70.7539,103.8167,256.2981,-7.487e-05,-1.479e-05,0.0,0 STARLINK-5190,1 54092U 22136AT  23020.45102843 -.00001479  00000-0 -74870-4 0  9991,2 54092  53.2160  70.7539 0001395 103.8167 256.2981 15.08842490 14711,6917.8730000000005,95.437,540.703,538.773,0.0
54092.0,STARLINK-5190,PAYLOAD,2023-01-21 10:40:15,15.08849867,0.0001136,53.2163,66.2918,105.196,254.9158,-3.7186e-05,-8.8e-06,0.0,0 STARLINK-5190,1 54092U 22136AT  23021.44462060 -.00000880  00000-0 -37186-4 0  9995,2 54092  53.2163  66.2918 0001136 105.1960 254.9158 15.08849867 14866,6917.85,95.437,540.501,538.929,0.0
54092.0,STARLINK-5190,PAYLOAD,2023-01-22 08:55:39,15.08834976,0.0001252999999999,53.2161,62.129,82.1782,277.9352,0.00011605,1.559e-05,0.0,0 STARLINK-5190,1 54092U 22136AT  23022.37198565  .00001559  00000-0  11605-3 0  9993,2 54092  53.2161  62.1290 0001253  82.1782 277.9352 15.08834976 15001,6917.896,95.438,540.628,538.894,0.0
54092.0,STARLINK-5190,PAYLOAD,2023-01-23 08:46:27,15.08832468,0.0001313,53.2166,57.6665,90.9179,269.1963,6.7238e-05,7.82e-06,0.0,0 STARLINK-5190,1 54092U 22136AT  23023.36559085  .00000782  00000-0  67238-4 0  9992,2 54092  53.2166  57.6665 0001313  90.9179 269.1963 15.08832468 15156,6917.903,95.438,540.677,538.86,0.0
54092.0,STARLINK-5190,PAYLOAD,2023-01-24 08:37:13,15.08849504,0.0001530999999999,53.2174,53.2093,89.1686,270.9482,1.1414e-05,-1.06e-06,0.0,0 STARLINK-5190,1 54092U 22136AT  23024.35918525 -.00000106  00000-0  11414-4 0  9996,2 54092  53.2174  53.2093 0001531  89.1686 270.9482 15.08849504 15309,6917.851,95.437,540.775,538.6569999999999,0.0
54092.0,STARLINK-5190,PAYLOAD,2023-01-24 18:09:33,15.08806977,0.0001678,53.2176,51.418,95.6854,264.433,0.00051566,7.921e-05,0.0,0 STARLINK-5190,1 54092U 22136AT  23024.75664181  .00007921  00000-0  51566-3 0  9998,2 54092  53.2176  51.4180 0001678  95.6854 264.4330 15.08806977 15362,6917.981,95.44,541.007,538.685,0.0
54092.0,STARLINK-5190,PAYLOAD,2023-01-24 22:55:43,15.08825884,0.0001460999999999,53.2165,50.5307,86.2719,273.844,6.2805e-05,7.11e-06,0.0,0 STARLINK-5190,1 54092U 22136AT  23024.95535948  .00000711  00000-0  62805-4 0  9997,2 54092  53.2165  50.5307 0001461  86.2719 273.8440 15.08825884 15394,6917.924,95.438,540.799,538.778,0.0
54092.0,STARLINK-5190,PAYLOAD,2023-01-25 08:28:01,15.08834611,0.0001506999999999,53.2168,48.748000000000005,85.4031,274.7133,0.00013117,1.8e-05,0.0,0 STARLINK-5190,1 54092U 22136AT  23025.35279524  .00001800  00000-0  13117-3 0  9998,2 54092  53.2168  48.7480 0001507  85.4031 274.7133 15.08834611 15451,6917.897,95.438,540.804,538.719,0.0
54092.0,STARLINK-5190,PAYLOAD,2023-01-26 09:54:11,15.08848496,0.000164,53.2178,43.993,110.4675,249.6493,0.00015403,2.165e-05,0.0,0 STARLINK-5190,1 54092U 22136AT  23026.41262817  .00002165  00000-0  15403-3 0  9998,2 54092  53.2178  43.9930 0001640 110.4675 249.6493 15.08848496 15614,6917.854,95.437,540.854,538.585,0.0
54092.0,STARLINK-5190,PAYLOAD,2023-01-26 22:37:17,15.08833647,0.0001401,53.2171,41.6115,95.1589,264.9563,0.00015438,2.169e-05,0.0,0 STARLINK-5190,1 54092U 22136AT  23026.94255839  .00002169  00000-0  15438-3 0  9994,2 54092  53.2171  41.6115 0001401  95.1589 264.9563 15.08833647 15693,6917.9,95.438,540.734,538.7959999999999,0.0
54092.0,STARLINK-5190,PAYLOAD,2023-01-27 09:44:59,15.08835986,0.0001312,53.2174,39.5265,95.6274,264.4868,9.5576e-05,1.233e-05,0.0,0 STARLINK-5190,1 54092U 22136AT  23027.40623868  .00001233  00000-0  95576-4 0  9990,2 54092  53.2174  39.5265 0001312  95.6274 264.4868 15.08835986 15292,6917.893,95.438,540.665,538.85,0.0
54092.0,STARLINK-5190,PAYLOAD,2023-01-28 00:03:27,15.08836282,0.0001539,53.2173,36.8501,116.4624,243.6526,1.9108e-05,1.6e-07,0.0,0 STARLINK-5190,1 54092U 22136AT  23028.00240111  .00000016  00000-0  19108-4 0  9998,2 54092  53.2173  36.8501 0001539 116.4624 243.6526 15.08836282 15858,6917.892,95.438,540.821,538.692,0.0
54092.0,STARLINK-5190,PAYLOAD,2023-01-28 08:00:22,15.08843467,0.0001337,53.2171,35.3635,108.5834,251.5303,7.0071e-05,8.28e-06,0.0,0 STARLINK-5190,1 54092U 22136AT  23028.33359561  .00000828  00000-0  70071-4 0  9991,2 54092  53.2171  35.3635 0001337 108.5834 251.5303 15.08843467 15909,6917.87,95.437,540.66,538.81,0.0
54092.0,STARLINK-5190,PAYLOAD,2023-01-28 23:54:16,15.08819363,0.0001369,53.2176,32.3896,103.2348,256.8797,-5.0896e-05,-1.097e-05,0.0,0 STARLINK-5190,1 54092U 22136AT  23028.99601971 -.00001097  00000-0 -50896-4 0  9992,2 54092  53.2176  32.3896 0001369 103.2348 256.8797 15.08819363 16002,6917.943,95.439,540.756,538.861,0.0
54092.0,STARLINK-5190,PAYLOAD,2023-01-29 07:51:10,15.08840303,0.0001269,53.2175,30.9028,92.4542,267.6596,0.00013933,1.93e-05,0.0,0 STARLINK-5190,1 54092U 22136AT  23029.32720901  .00001930  00000-0  13933-3 0  9999,2 54092  53.2175  30.9028 0001269  92.4542 267.6596 15.08840303 16056,6917.879,95.438,540.622,538.867,0.0
